{
  "type": "FeatureCollection",
  "features": [
    {
      "type": "Feature",
      "properties": {
        "norad_id": 36036,
        "name": "SMOS",
        "group": "resource",
        "lat": -78.60500963482575,
        "lon": -136.76036435954094,
        "alt_km": 767.4196941861965,
        "timestamp": "2025-12-16T19:34:23.921760+00:00",
        "meta_object_name": "SMOS",
        "meta_object_id": "2009-059A",
        "meta_epoch": "2025-12-15T18:56:10.705056",
        "meta_mean_motion": 14.39743719,
        "meta_eccentricity": 0.00010987,
        "meta_inclination": 98.4381,
        "meta_ra_of_asc_node": 174.7923,
        "meta_arg_of_pericenter": 83.8276,
        "meta_mean_anomaly": 276.3038,
        "meta_ephemeris_type": 0,
        "meta_classification_type": "U",
        "meta_norad_cat_id": 36036,
        "meta_element_set_no": 999,
        "meta_rev_at_epoch": 84706,
        "meta_bstar": 0.00012839455,
        "meta_mean_motion_dot": 3.59e-06,
        "meta_mean_motion_ddot": 0,
        "tle_line1": "1 36036U 09059A   25349.78901279  .00000359  00000+0  12839-3 0  9999",
        "tle_line2": "2 36036  98.4381 174.7923 0001098  83.8276 276.3038 14.39743719847060"
      },
      "geometry": {
        "type": "Point",
        "coordinates": [
          -136.76036435954094,
          -78.60500963482575
        ]
      }
    },
    {
      "type": "Feature",
      "properties": {
        "norad_id": 36110,
        "name": "YAOGAN-7",
        "group": "resource",
        "lat": -59.729969860062674,
        "lon": -113.44556163574208,
        "alt_km": 629.6916724989769,
        "timestamp": "2025-12-16T19:34:23.921772+00:00",
        "meta_object_name": "YAOGAN-7",
        "meta_object_id": "2009-069A",
        "meta_epoch": "2025-12-15T22:43:15.356064",
        "meta_mean_motion": 14.77737056,
        "meta_eccentricity": 0.00233286,
        "meta_inclination": 98.0298,
        "meta_ra_of_asc_node": 231.6922,
        "meta_arg_of_pericenter": 270.351,
        "meta_mean_anomaly": 89.5027,
        "meta_ephemeris_type": 0,
        "meta_classification_type": "U",
        "meta_norad_cat_id": 36110,
        "meta_element_set_no": 999,
        "meta_rev_at_epoch": 86256,
        "meta_bstar": 9.093942e-05,
        "meta_mean_motion_dot": 6.01e-06,
        "meta_mean_motion_ddot": 0,
        "tle_line1": "1 36110U 09069A   25349.94670551  .00000601  00000+0  90939-4 0  9995",
        "tle_line2": "2 36110  98.0298 231.6922 0023328 270.3510  89.5027 14.77737056862565"
      },
      "geometry": {
        "type": "Point",
        "coordinates": [
          -113.44556163574208,
          -59.729969860062674
        ]
      }
    },
    {
      "type": "Feature",
      "properties": {
        "norad_id": 36605,
        "name": "TANDEM-X",
        "group": "resource",
        "lat": 70.0530962339064,
        "lon": -24.981722054701052,
        "alt_km": 500.3295725193966,
        "timestamp": "2025-12-16T19:34:23.921783+00:00",
        "meta_object_name": "TANDEM-X",
        "meta_object_id": "2010-030A",
        "meta_epoch": "2025-12-15T11:38:35.554272",
        "meta_mean_motion": 15.19144958,
        "meta_eccentricity": 0.000193,
        "meta_inclination": 97.4447,
        "meta_ra_of_asc_node": 354.8261,
        "meta_arg_of_pericenter": 84.3748,
        "meta_mean_anomaly": 275.7707,
        "meta_ephemeris_type": 0,
        "meta_classification_type": "U",
        "meta_norad_cat_id": 36605,
        "meta_element_set_no": 999,
        "meta_rev_at_epoch": 85875,
        "meta_bstar": 7.0899698e-05,
        "meta_mean_motion_dot": 1.422e-05,
        "meta_mean_motion_ddot": 0,
        "tle_line1": "1 36605U 10030A   25349.48513373  .00001422  00000+0  70900-4 0  9999",
        "tle_line2": "2 36605  97.4447 354.8261 0001930  84.3748 275.7707 15.19144958858758"
      },
      "geometry": {
        "type": "Point",
        "coordinates": [
          -24.981722054701052,
          70.0530962339064
        ]
      }
    },
    {
      "type": "Feature",
      "properties": {
        "norad_id": 36795,
        "name": "CARTOSAT-2B",
        "group": "resource",
        "lat": -60.19988513975403,
        "lon": -154.10772254693524,
        "alt_km": 649.5845588868297,
        "timestamp": "2025-12-16T19:34:23.921793+00:00",
        "meta_object_name": "CARTOSAT-2B",
        "meta_object_id": "2010-035A",
        "meta_epoch": "2025-12-15T22:59:56.035680",
        "meta_mean_motion": 14.78729293,
        "meta_eccentricity": 0.00129866,
        "meta_inclination": 97.7855,
        "meta_ra_of_asc_node": 38.8842,
        "meta_arg_of_pericenter": 66.9757,
        "meta_mean_anomaly": 293.2822,
        "meta_ephemeris_type": 0,
        "meta_classification_type": "U",
        "meta_norad_cat_id": 36795,
        "meta_element_set_no": 999,
        "meta_rev_at_epoch": 83277,
        "meta_bstar": 9.7993335e-05,
        "meta_mean_motion_dot": 6.7e-06,
        "meta_mean_motion_ddot": 0,
        "tle_line1": "1 36795U 10035A   25349.95828745  .00000670  00000+0  97993-4 0  9993",
        "tle_line2": "2 36795  97.7855  38.8842 0012986  66.9757 293.2822 14.78729293832779"
      },
      "geometry": {
        "type": "Point",
        "coordinates": [
          -154.10772254693524,
          -60.19988513975403
        ]
      }
    },
    {
      "type": "Feature",
      "properties": {
        "norad_id": 36834,
        "name": "YAOGAN-10",
        "group": "resource",
        "lat": 46.89138065146909,
        "lon": 2.059364244312924,
        "alt_km": 609.8857005693999,
        "timestamp": "2025-12-16T19:34:23.921804+00:00",
        "meta_object_name": "YAOGAN-10",
        "meta_object_id": "2010-038A",
        "meta_epoch": "2025-12-16T00:19:24.238272",
        "meta_mean_motion": 14.84619881,
        "meta_eccentricity": 0.00013151,
        "meta_inclination": 97.9144,
        "meta_ra_of_asc_node": 9.8098,
        "meta_arg_of_pericenter": 82.6289,
        "meta_mean_anomaly": 0.7358,
        "meta_ephemeris_type": 0,
        "meta_classification_type": "U",
        "meta_norad_cat_id": 36834,
        "meta_element_set_no": 999,
        "meta_rev_at_epoch": 83002,
        "meta_bstar": 0.00016742162,
        "meta_mean_motion_dot": 1.361e-05,
        "meta_mean_motion_ddot": 0,
        "tle_line1": "1 36834U 10038A   25350.01347498  .00001361  00000+0  16742-3 0  9990",
        "tle_line2": "2 36834  97.9144   9.8098 0001315  82.6289   0.7358 14.84619881830025"
      },
      "geometry": {
        "type": "Point",
        "coordinates": [
          2.059364244312924,
          46.89138065146909
        ]
      }
    },
    {
      "type": "Feature",
      "properties": {
        "norad_id": 37216,
        "name": "COSMO-SKYMED 4",
        "group": "resource",
        "lat": -64.2647776949947,
        "lon": -171.2237679125666,
        "alt_km": 630.5583071490164,
        "timestamp": "2025-12-16T19:34:23.921814+00:00",
        "meta_object_name": "COSMO-SKYMED 4",
        "meta_object_id": "2010-060A",
        "meta_epoch": "2025-12-15T22:48:17.164224",
        "meta_mean_motion": 14.82151449,
        "meta_eccentricity": 0.00014167,
        "meta_inclination": 97.8806,
        "meta_ra_of_asc_node": 171.2249,
        "meta_arg_of_pericenter": 81.6368,
        "meta_mean_anomaly": 278.5006,
        "meta_ephemeris_type": 0,
        "meta_classification_type": "U",
        "meta_norad_cat_id": 37216,
        "meta_element_set_no": 999,
        "meta_rev_at_epoch": 81742,
        "meta_bstar": 0.00013900996,
        "meta_mean_motion_dot": 1.055e-05,
        "meta_mean_motion_ddot": 0,
        "tle_line1": "1 37216U 10060A   25349.95019866  .00001055  00000+0  13901-3 0  9990",
        "tle_line2": "2 37216  97.8806 171.2249 0001416  81.6368 278.5006 14.82151449817428"
      },
      "geometry": {
        "type": "Point",
        "coordinates": [
          -171.2237679125666,
          -64.2647776949947
        ]
      }
    },
    {
      "type": "Feature",
      "properties": {
        "norad_id": 37387,
        "name": "RESOURCESAT-2",
        "group": "resource",
        "lat": 80.81374345727312,
        "lon": -52.61317055584438,
        "alt_km": 810.3064992968075,
        "timestamp": "2025-12-16T19:34:23.921825+00:00",
        "meta_object_name": "RESOURCESAT-2",
        "meta_object_id": "2011-015A",
        "meta_epoch": "2025-12-15T21:10:48.230688",
        "meta_mean_motion": 14.21598544,
        "meta_eccentricity": 0.00062913,
        "meta_inclination": 98.7875,
        "meta_ra_of_asc_node": 53.4202,
        "meta_arg_of_pericenter": 34.3241,
        "meta_mean_anomaly": 325.8341,
        "meta_ephemeris_type": 0,
        "meta_classification_type": "U",
        "meta_norad_cat_id": 37387,
        "meta_element_set_no": 999,
        "meta_rev_at_epoch": 76013,
        "meta_bstar": 8.3986492e-05,
        "meta_mean_motion_dot": 1.4e-06,
        "meta_mean_motion_ddot": 0,
        "tle_line1": "1 37387U 11015A   25349.88250267  .00000140  00000+0  83986-4 0  9999",
        "tle_line2": "2 37387  98.7875  53.4202 0006291  34.3241 325.8341 14.21598544760131"
      },
      "geometry": {
        "type": "Point",
        "coordinates": [
          -52.61317055584438,
          80.81374345727312
        ]
      }
    }
  ]
}